[{"OBJECT_NAME":"CUTE-1 (CO-55)","OBJECT_ID":"2003-031E","EPOCH":"2026-03-09T23:38:51.813024","MEAN_MOTION":14.24266468,"ECCENTRICITY":0.00106777,"INCLINATION":98.6777,"RA_OF_ASC_NODE":78.7801,"ARG_OF_PERICENTER":111.7093,"MEAN_ANOMALY":248.5223,"EPHEMERIS_TYPE":0,"CLASSIFICATION_TYPE":"U","NORAD_CAT_ID":27844,"ELEMENT_SET_NO":999,"REV_AT_EPOCH":17755,"BSTAR":0.00020468113,"MEAN_MOTION_DOT":4.29e-6,"MEAN_MOTION_DDOT":0},{"OBJECT_NAME":"FENGYUN 1C DEB","OBJECT_ID":"1999-025BGF","EPOCH":"2026-03-09T12:51:38.119104","MEAN_MOTION":14.30375053,"ECCENTRICITY":0.00876482,"INCLINATION":98.9821,"RA_OF_ASC_NODE":277.1513,"ARG_OF_PERICENTER":124.8716,"MEAN_ANOMALY":268.256,"EPHEMERIS_TYPE":0,"CLASSIFICATION_TYPE":"U","NORAD_CAT_ID":31085,"ELEMENT_SET_NO":999,"REV_AT_EPOCH":98957,"BSTAR":0.00012150394,"MEAN_MOTION_DOT":2.83e-6,"MEAN_MOTION_DDOT":0}]
